{
    "links": {
        "self": "http://www.neowsapp.com/rest/v1/neo/3760675?api_key=iIulBulltgU6a56xZRHN4H3l9WmuAYTsLGpBGhQ2"
    },
    "id": "3760675",
    "neo_reference_id": "3760675",
    "name": "(2016 TV19)",
    "designation": "2016 TV19",
    "nasa_jpl_url": "http://ssd.jpl.nasa.gov/sbdb.cgi?sstr=3760675",
    "absolute_magnitude_h": 25.9,
    "estimated_diameter": {
        "kilometers": {
            "estimated_diameter_min": 0.0175612318,
            "estimated_diameter_max": 0.0392681082
        },
        "meters": {
            "estimated_diameter_min": 17.561231848,
            "estimated_diameter_max": 39.2681081809
        },
        "miles": {
            "estimated_diameter_min": 0.0109120402,
            "estimated_diameter_max": 0.0244000636
        },
        "feet": {
            "estimated_diameter_min": 57.6155918963,
            "estimated_diameter_max": 128.8323800441
        }
    },
    "is_potentially_hazardous_asteroid": false,
    "close_approach_data": [
        {
            "close_approach_date": "1974-12-27",
            "close_approach_date_full": "1974-Dec-27 03:05",
            "epoch_date_close_approach": 157345500000,
            "relative_velocity": {
                "kilometers_per_second": "4.5204714906",
                "kilometers_per_hour": "16273.6973662794",
                "miles_per_hour": "10111.8426773974"
            },
            "miss_distance": {
                "astronomical": "0.1314328917",
                "lunar": "51.1273948713",
                "kilometers": "19662080.646260679",
                "miles": "12217450.3828842102"
            },
            "orbiting_body": "Venus"
        },
        {
            "close_approach_date": "2016-09-28",
            "close_approach_date_full": "2016-Sep-28 12:07",
            "epoch_date_close_approach": 1475064420000,
            "relative_velocity": {
                "kilometers_per_second": "10.7637930296",
                "kilometers_per_hour": "38749.6549065611",
                "miles_per_hour": "24077.5286279129"
            },
            "miss_distance": {
                "astronomical": "0.0185706094",
                "lunar": "7.2239670566",
                "kilometers": "2778123.610841978",
                "miles": "1726245.9646881764"
            },
            "orbiting_body": "Earth"
        },
        {
            "close_approach_date": "2051-04-10",
            "close_approach_date_full": "2051-Apr-10 05:18",
            "epoch_date_close_approach": 2564716680000,
            "relative_velocity": {
                "kilometers_per_second": "4.1867241789",
                "kilometers_per_hour": "15072.2070438853",
                "miles_per_hour": "9365.2833156853"
            },
            "miss_distance": {
                "astronomical": "0.1212511244",
                "lunar": "47.1666873916",
                "kilometers": "18138909.945345028",
                "miles": "11270995.9970082664"
            },
            "orbiting_body": "Venus"
        }
    ],
    "orbital_data": {
        "orbit_id": "2",
        "orbit_determination_date": "2017-04-06 08:23:09",
        "first_observation_date": "2016-10-09",
        "last_observation_date": "2016-10-11",
        "data_arc_in_days": 2,
        "observations_used": 16,
        "orbit_uncertainty": "8",
        "minimum_orbit_intersection": ".0174757",
        "jupiter_tisserand_invariant": "4.564",
        "epoch_osculation": "2457671.5",
        "eccentricity": ".4132083501584552",
        "semi_major_axis": "1.442868754092882",
        "inclination": "3.290760611737252",
        "ascending_node_longitude": "23.59469209306106",
        "orbital_period": "633.0509573624316",
        "perihelion_distance": ".8466633367189763",
        "perihelion_argument": "280.1004444586196",
        "aphelion_distance": "2.039074171466787",
        "perihelion_time": "2457613.423133600841",
        "mean_anomaly": "33.02683877267604",
        "mean_motion": ".5686746000668227",
        "equinox": "J2000",
        "orbit_class": {
            "orbit_class_type": "APO",
            "orbit_class_description": "Near-Earth asteroid orbits which cross the Earth’s orbit similar to that of 1862 Apollo",
            "orbit_class_range": "a (semi-major axis) > 1.0 AU; q (perihelion) < 1.017 AU"
        }
    },
    "is_sentry_object": false
}